start=new Date('2022-05-29T00:00:00.000Z').valueOf();
sats=[{"FILE":"3469840","ARG_OF_PERICENTER":"49.6415","GP_ID":"204803941","DECAY_DATE":null,"MEAN_MOTION_DOT":"0.00001336","REV_AT_EPOCH":"7211","RCS_SIZE":"LARGE","REF_FRAME":"TEME","MEAN_ANOMALY":"310.4778","SEMIMAJOR_AXIS":"6925.336","OBJECT_ID":"2021-012Z","INCLINATION":"53.0563","TIME_SYSTEM":"UTC","CENTER_NAME":"EARTH","CLASSIFICATION_TYPE":"U","NORAD_CAT_ID":"47643","MEAN_ELEMENT_THEORY":"SGP4","BSTAR":"0.00010859000000","ELEMENT_SET_NO":"999","EPOCH":"2022-05-28T16:12:15.307488","OBJECT_TYPE":"PAYLOAD","PERIAPSIS":"545.582","SITE":"AFETR","TLE_LINE2":"2 47643  53.0563 131.2417 0002337  49.6415 310.4778 15.06404168 72117","COUNTRY_CODE":"US","APOAPSIS":"548.819","EPHEMERIS_TYPE":"0","LAUNCH_DATE":"2021-02-16","PERIOD":"95.592","TLE_LINE1":"1 47643U 21012Z   22148.67517717  .00001336  00000-0  10859-3 0  9997","RA_OF_ASC_NODE":"131.2417","OBJECT_NAME":"STARLINK-2022","MEAN_MOTION_DDOT":"0.0000000000000","ECCENTRICITY":"0.00023370","MEAN_MOTION":"15.06404168"},{"PERIOD":"95.592","LAUNCH_DATE":"2021-02-16","MEAN_MOTION":"15.06402374","RA_OF_ASC_NODE":"152.0720","TLE_LINE1":"1 47644U 21012AA  22148.48903177  .00001924  00000-0  14799-3 0  9996","OBJECT_NAME":"STARLINK-2026","MEAN_MOTION_DDOT":"0.0000000000000","ECCENTRICITY":"0.00016810","BSTAR":"0.00014799000000","MEAN_ELEMENT_THEORY":"SGP4","ELEMENT_SET_NO":"999","EPOCH":"2022-05-28T11:44:12.344928","CENTER_NAME":"EARTH","CLASSIFICATION_TYPE":"U","NORAD_CAT_ID":"47644","COUNTRY_CODE":"US","TLE_LINE2":"2 47644  53.0544 152.0720 0001681  51.6551 308.4589 15.06402374 71810","EPHEMERIS_TYPE":"0","APOAPSIS":"548.370","OBJECT_TYPE":"PAYLOAD","PERIAPSIS":"546.042","SITE":"AFETR","MEAN_ANOMALY":"308.4589","OBJECT_ID":"2021-012AA","TIME_SYSTEM":"UTC","INCLINATION":"53.0544","SEMIMAJOR_AXIS":"6925.341","GP_ID":"204765489","FILE":"3469283","ARG_OF_PERICENTER":"51.6551","REF_FRAME":"TEME","RCS_SIZE":"LARGE","DECAY_DATE":null,"MEAN_MOTION_DOT":"0.00001924","REV_AT_EPOCH":"7181"},{"FILE":"3469840","ARG_OF_PERICENTER":"68.8732","GP_ID":"204804437","DECAY_DATE":null,"MEAN_MOTION_DOT":"-0.00112971","REV_AT_EPOCH":"7222","REF_FRAME":"TEME","RCS_SIZE":"LARGE","MEAN_ANOMALY":"291.2437","SEMIMAJOR_AXIS":"6931.016","OBJECT_ID":"2021-012AB","TIME_SYSTEM":"UTC","INCLINATION":"53.0553","CENTER_NAME":"EARTH","CLASSIFICATION_TYPE":"U","NORAD_CAT_ID":"47645","MEAN_ELEMENT_THEORY":"SGP4","BSTAR":"-0.00807880000000","EPOCH":"2022-05-28T14:57:01.703232","ELEMENT_SET_NO":"999","PERIAPSIS":"551.706","OBJECT_TYPE":"PAYLOAD","SITE":"AFETR","TLE_LINE2":"2 47645  53.0553 121.4959 0001695  68.8732 291.2437 15.04552643 72221","COUNTRY_CODE":"US","APOAPSIS":"554.056","EPHEMERIS_TYPE":"0","LAUNCH_DATE":"2021-02-16","PERIOD":"95.710","TLE_LINE1":"1 47645U 21012AB  22148.62293638 -.00112971  00000-0 -80788-2 0  9994","RA_OF_ASC_NODE":"121.4959","MEAN_MOTION_DDOT":"0.0000000000000","ECCENTRICITY":"0.00016950","OBJECT_NAME":"STARLINK-2027","MEAN_MOTION":"15.04552643"},{"MEAN_ANOMALY":"305.4364","SEMIMAJOR_AXIS":"6932.844","INCLINATION":"53.0559","TIME_SYSTEM":"UTC","OBJECT_ID":"2021-012AC","FILE":"3469840","ARG_OF_PERICENTER":"54.6802","GP_ID":"204803691","DECAY_DATE":null,"REV_AT_EPOCH":"7274","MEAN_MOTION_DOT":"-0.00000368","RCS_SIZE":"LARGE","REF_FRAME":"TEME","LAUNCH_DATE":"2021-02-16","PERIOD":"95.747","MEAN_MOTION_DDOT":"0.0000000000000","OBJECT_NAME":"STARLINK-2028","ECCENTRICITY":"0.00019050","RA_OF_ASC_NODE":"85.7322","TLE_LINE1":"1 47646U 21012AC  22148.81898671 -.00000368  00000-0 -66675-5 0  9992","MEAN_MOTION":"15.03957743","CLASSIFICATION_TYPE":"U","NORAD_CAT_ID":"47646","CENTER_NAME":"EARTH","MEAN_ELEMENT_THEORY":"SGP4","BSTAR":"-0.00000666750000","ELEMENT_SET_NO":"999","EPOCH":"2022-05-28T19:39:20.451744","PERIAPSIS":"553.388","OBJECT_TYPE":"PAYLOAD","SITE":"AFETR","COUNTRY_CODE":"US","TLE_LINE2":"2 47646  53.0559  85.7322 0001905  54.6802 305.4364 15.03957743 72742","APOAPSIS":"556.030","EPHEMERIS_TYPE":"0"},{"MEAN_ANOMALY":"307.2176","SEMIMAJOR_AXIS":"6925.351","TIME_SYSTEM":"UTC","INCLINATION":"53.0538","OBJECT_ID":"2021-012AD","FILE":"3469840","ARG_OF_PERICENTER":"52.8976","GP_ID":"204803441","DECAY_DATE":null,"REV_AT_EPOCH":"7184","MEAN_MOTION_DOT":"0.00000555","RCS_SIZE":"LARGE","REF_FRAME":"TEME","LAUNCH_DATE":"2021-02-16","PERIOD":"95.592","MEAN_MOTION_DDOT":"0.0000000000000","OBJECT_NAME":"STARLINK-2030","ECCENTRICITY":"0.00017850","TLE_LINE1":"1 47647U 21012AD  22148.69914773  .00000555  00000-0  56166-4 0  9990","RA_OF_ASC_NODE":"151.1366","MEAN_MOTION":"15.06399263","CLASSIFICATION_TYPE":"U","NORAD_CAT_ID":"47647","CENTER_NAME":"EARTH","MEAN_ELEMENT_THEORY":"SGP4","BSTAR":"0.00005616600000","ELEMENT_SET_NO":"999","EPOCH":"2022-05-28T16:46:46.363872","PERIAPSIS":"545.980","OBJECT_TYPE":"PAYLOAD","SITE":"AFETR","COUNTRY_CODE":"US","TLE_LINE2":"2 47647  53.0538 151.1366 0001785  52.8976 307.2176 15.06399263 71845","EPHEMERIS_TYPE":"0","APOAPSIS":"548.452"},{"LAUNCH_DATE":"2021-02-16","PERIOD":"95.592","TLE_LINE1":"1 47648U 21012AE  22148.68992802  .00000934  00000-0  81634-4 0  9998","RA_OF_ASC_NODE":"131.1748","OBJECT_NAME":"STARLINK-2031","MEAN_MOTION_DDOT":"0.0000000000000","ECCENTRICITY":"0.00021750","MEAN_MOTION":"15.06399478","CENTER_NAME":"EARTH","CLASSIFICATION_TYPE":"U","NORAD_CAT_ID":"47648","MEAN_ELEMENT_THEORY":"SGP4","BSTAR":"0.00008163400000","EPOCH":"2022-05-28T16:33:29.780928","ELEMENT_SET_NO":"999","PERIAPSIS":"545.709","OBJECT_TYPE":"PAYLOAD","SITE":"AFETR","COUNTRY_CODE":"US","TLE_LINE2":"2 47648  53.0527 131.1748 0002175  51.7111 308.4073 15.06399478 72128","APOAPSIS":"548.721","EPHEMERIS_TYPE":"0","MEAN_ANOMALY":"308.4073","SEMIMAJOR_AXIS":"6925.350","OBJECT_ID":"2021-012AE","INCLINATION":"53.0527","TIME_SYSTEM":"UTC","FILE":"3469840","ARG_OF_PERICENTER":"51.7111","GP_ID":"204804693","DECAY_DATE":null,"REV_AT_EPOCH":"7212","MEAN_MOTION_DOT":"0.00000934","REF_FRAME":"TEME","RCS_SIZE":"MEDIUM"},{"LAUNCH_DATE":"2021-02-16","PERIOD":"95.593","TLE_LINE1":"1 47649U 21012AF  22148.36188302 -.00000276  00000-0  39421-6 0  9995","RA_OF_ASC_NODE":"132.6472","MEAN_MOTION_DDOT":"0.0000000000000","OBJECT_NAME":"STARLINK-2032","ECCENTRICITY":"0.00022390","MEAN_MOTION":"15.06393564","CENTER_NAME":"EARTH","CLASSIFICATION_TYPE":"U","NORAD_CAT_ID":"47649","BSTAR":"0.00000039421000","MEAN_ELEMENT_THEORY":"SGP4","ELEMENT_SET_NO":"999","EPOCH":"2022-05-28T08:41:06.692928","PERIAPSIS":"545.683","OBJECT_TYPE":"PAYLOAD","SITE":"AFETR","COUNTRY_CODE":"US","TLE_LINE2":"2 47649  53.0546 132.6472 0002239  45.9329 314.1844 15.06393564 72071","EPHEMERIS_TYPE":"0","APOAPSIS":"548.784","MEAN_ANOMALY":"314.1844","SEMIMAJOR_AXIS":"6925.368","OBJECT_ID":"2021-012AF","TIME_SYSTEM":"UTC","INCLINATION":"53.0546","FILE":"3469283","ARG_OF_PERICENTER":"45.9329","GP_ID":"204765240","DECAY_DATE":null,"MEAN_MOTION_DOT":"-0.00000276","REV_AT_EPOCH":"7207","RCS_SIZE":"LARGE","REF_FRAME":"TEME"},{"MEAN_MOTION":"15.06405787","MEAN_MOTION_DDOT":"0.0000000000000","ECCENTRICITY":"0.00020220","OBJECT_NAME":"STARLINK-2033","RA_OF_ASC_NODE":"131.2235","TLE_LINE1":"1 47650U 21012AG  22148.67886304  .00000668  00000-0  63765-4 0  9998","PERIOD":"95.592","LAUNCH_DATE":"2021-02-16","APOAPSIS":"548.596","EPHEMERIS_TYPE":"0","TLE_LINE2":"2 47650  53.0550 131.2235 0002022  49.2011 310.9154 15.06405787 72108","COUNTRY_CODE":"US","SITE":"AFETR","PERIAPSIS":"545.796","OBJECT_TYPE":"PAYLOAD","ELEMENT_SET_NO":"999","EPOCH":"2022-05-28T16:17:33.766656","MEAN_ELEMENT_THEORY":"SGP4","BSTAR":"0.00006376500000","NORAD_CAT_ID":"47650","CLASSIFICATION_TYPE":"U","CENTER_NAME":"EARTH","INCLINATION":"53.0550","TIME_SYSTEM":"UTC","OBJECT_ID":"2021-012AG","SEMIMAJOR_AXIS":"6925.331","MEAN_ANOMALY":"310.9154","RCS_SIZE":"LARGE","REF_FRAME":"TEME","REV_AT_EPOCH":"7210","MEAN_MOTION_DOT":"0.00000668","DECAY_DATE":null,"GP_ID":"204803192","ARG_OF_PERICENTER":"49.2011","FILE":"3469840"},{"APOAPSIS":"548.518","EPHEMERIS_TYPE":"0","COUNTRY_CODE":"US","TLE_LINE2":"2 47651  53.0549 151.0764 0001887  55.1664 304.9503 15.06400671 71840","SITE":"AFETR","OBJECT_TYPE":"PAYLOAD","PERIAPSIS":"545.905","EPOCH":"2022-05-28T17:06:38.687328","ELEMENT_SET_NO":"999","BSTAR":"-0.00000411280000","MEAN_ELEMENT_THEORY":"SGP4","NORAD_CAT_ID":"47651","CLASSIFICATION_TYPE":"U","CENTER_NAME":"EARTH","MEAN_MOTION":"15.06400671","OBJECT_NAME":"STARLINK-2035","MEAN_MOTION_DDOT":"0.0000000000000","ECCENTRICITY":"0.00018870","RA_OF_ASC_NODE":"151.0764","TLE_LINE1":"1 47651U 21012AH  22148.71294777 -.00000343  00000-0 -41128-5 0  9993","PERIOD":"95.592","LAUNCH_DATE":"2021-02-16","RCS_SIZE":"LARGE","REF_FRAME":"TEME","REV_AT_EPOCH":"7184","MEAN_MOTION_DOT":"-0.00000343","DECAY_DATE":null,"GP_ID":"204803942","ARG_OF_PERICENTER":"55.1664","FILE":"3469840","INCLINATION":"53.0549","TIME_SYSTEM":"UTC","OBJECT_ID":"2021-012AH","SEMIMAJOR_AXIS":"6925.347","MEAN_ANOMALY":"304.9503"},{"TLE_LINE1":"1 47652U 21012AJ  22148.73970495  .00002111  00000-0  16057-3 0  9998","RA_OF_ASC_NODE":"150.9492","OBJECT_NAME":"STARLINK-2036","MEAN_MOTION_DDOT":"0.0000000000000","ECCENTRICITY":"0.00021400","MEAN_MOTION":"15.06404975","LAUNCH_DATE":"2021-02-16","PERIOD":"95.592","PERIAPSIS":"545.716","OBJECT_TYPE":"PAYLOAD","SITE":"AFETR","TLE_LINE2":"2 47652  53.0532 150.9492 0002140  44.4981 315.6179 15.06404975 71844","COUNTRY_CODE":"US","EPHEMERIS_TYPE":"0","APOAPSIS":"548.680","CENTER_NAME":"EARTH","CLASSIFICATION_TYPE":"U","NORAD_CAT_ID":"47652","BSTAR":"0.00016057000000","MEAN_ELEMENT_THEORY":"SGP4","ELEMENT_SET_NO":"999","EPOCH":"2022-05-28T17:45:10.507680","SEMIMAJOR_AXIS":"6925.333","OBJECT_ID":"2021-012AJ","INCLINATION":"53.0532","TIME_SYSTEM":"UTC","MEAN_ANOMALY":"315.6179","DECAY_DATE":null,"REV_AT_EPOCH":"7184","MEAN_MOTION_DOT":"0.00002111","REF_FRAME":"TEME","RCS_SIZE":"LARGE","FILE":"3469840","ARG_OF_PERICENTER":"44.4981","GP_ID":"204804193"}];
